{"type":"FeatureCollection","features":[{"type":"Feature","geometry":{"type":"MultiPolygon","coordinates":[[[[-78.690909,35.76178],[-78.690889,35.762783],[-78.689034,35.762798],[-78.688971,35.766277],[-78.690804,35.766259],[-78.690859,35.764603],[-78.692649,35.76454],[-78.692771,35.761847],[-78.69216,35.75967],[-78.697717,35.759794],[-78.697954,35.756584],[-78.697854,35.756584],[-78.697868,35.756419],[-78.694154,35.756344],[-78.695056,35.757435],[-78.69502,35.757884],[-78.694076,35.757698],[-78.693567,35.758172],[-78.691974,35.757025],[-78.690873,35.758495],[-78.691438,35.758879],[-78.69106,35.759522],[-78.690971,35.759773],[-78.690926,35.760491],[-78.689071,35.760505],[-78.689053,35.761782],[-78.690909,35.76178]]],[[[-78.689954,35.758586],[-78.689624,35.759001],[-78.69025,35.75926],[-78.690488,35.758928],[-78.689954,35.758586]]]]},"properties":{"OLAY_NAME":"Trailwood","OVERLAY":"NCOD","EFF_DATE":"Jun 1, 1999","ObjectID":1},"id":1},{"type":"Feature","geometry":{"type":"Polygon","coordinates":[[[-78.675823,35.815262],[-78.675193,35.815339],[-78.675061,35.815075],[-78.673645,35.815165],[-78.671504,35.816269],[-78.671379,35.816623],[-78.671098,35.816776],[-78.670359,35.81685],[-78.670017,35.817019],[-78.669751,35.816983],[-78.669238,35.817253],[-78.669744,35.817565],[-78.66975,35.817653],[-78.670519,35.818189],[-78.67238,35.818184],[-78.672366,35.817722],[-78.672235,35.817566],[-78.67269,35.817225],[-78.672835,35.817372],[-78.673922,35.816716],[-78.67451,35.81614],[-78.674994,35.816361],[-78.675443,35.815955],[-78.676101,35.81627],[-78.676196,35.816157],[-78.676661,35.816251],[-78.676791,35.816308],[-78.676934,35.816063],[-78.678037,35.816572],[-78.678579,35.815373],[-78.677747,35.815163],[-78.677581,35.815085],[-78.677552,35.814812],[-78.676536,35.814941],[-78.676516,35.815215],[-78.67584,35.815317],[-78.675823,35.815262]]]},"properties":{"OLAY_NAME":"Runnymede","OVERLAY":"NCOD","EFF_DATE":"Dec 11, 1990","ObjectID":2},"id":2},{"type":"Feature","geometry":{"type":"MultiPolygon","coordinates":[[[[-78.593402,35.773576],[-78.593627,35.773207],[-78.59411,35.773412],[-78.594577,35.773246],[-78.594812,35.773207],[-78.59517,35.773199],[-78.595279,35.77226],[-78.596169,35.772649],[-78.596177,35.772625],[-78.599551,35.773572],[-78.599877,35.772828],[-78.595351,35.771583],[-78.594684,35.771505],[-78.594042,35.771534],[-78.593337,35.771689],[-78.592854,35.771893],[-78.592958,35.772087],[-78.592947,35.772223],[-78.59239,35.77315],[-78.593402,35.773576]]],[[[-78.592135,35.773576],[-78.591872,35.774046],[-78.591771,35.77435],[-78.592791,35.774596],[-78.593178,35.773956],[-78.592164,35.773529],[-78.592135,35.773576]]],[[[-78.591742,35.774845],[-78.591748,35.775287],[-78.59235,35.77529],[-78.592615,35.774878],[-78.591742,35.774845]]],[[[-78.605976,35.777989],[-78.60623,35.778172],[-78.606779,35.777819],[-78.607031,35.778111],[-78.607157,35.777933],[-78.607638,35.777052],[-78.605561,35.776304],[-78.605768,35.775471],[-78.604952,35.775211],[-78.605117,35.774497],[-78.601442,35.773305],[-78.601161,35.774258],[-78.601867,35.774484],[-78.603273,35.775629],[-78.603035,35.775822],[-78.602924,35.775734],[-78.602215,35.776455],[-78.601983,35.776345],[-78.601693,35.776881],[-78.604349,35.778009],[-78.604326,35.778046],[-78.605406,35.777992],[-78.605596,35.777716],[-78.605976,35.777989]],[[-78.60429,35.77542],[-78.604612,35.775685],[-78.603914,35.776142],[-78.603564,35.775862],[-78.604194,35.77534],[-78.60429,35.77542]]],[[[-78.599807,35.778959],[-78.599853,35.780013],[-78.600362,35.779989],[-78.600311,35.778936],[-78.599807,35.778959]]],[[[-78.591813,35.779581],[-78.592021,35.780776],[-78.592305,35.782121],[-78.593028,35.781359],[-78.592975,35.781325],[-78.593669,35.780597],[-78.594334,35.780412],[-78.595204,35.78033],[-78.59538,35.779813],[-78.594812,35.779649],[-78.594288,35.779579],[-78.594331,35.779128],[-78.593907,35.778945],[-78.593369,35.778605],[-78.593475,35.778154],[-78.591794,35.777804],[-78.591782,35.779237],[-78.591813,35.779581]]],[[[-78.599368,35.785643],[-78.600067,35.785817],[-78.602739,35.786754],[-78.603175,35.786796],[-78.603336,35.786868],[-78.603729,35.786875],[-78.603846,35.786972],[-78.605289,35.786818],[-78.605279,35.786702],[-78.606307,35.786673],[-78.606299,35.786571],[-78.606798,35.786372],[-78.606698,35.786112],[-78.607152,35.786055],[-78.607464,35.785978],[-78.608444,35.785582],[-78.6091,35.785225],[-78.609371,35.785041],[-78.609798,35.784679],[-78.61088,35.783562],[-78.611068,35.783261],[-78.611132,35.783053],[-78.612328,35.781379],[-78.612548,35.780892],[-78.612626,35.780444],[-78.611876,35.780409],[-78.611458,35.780663],[-78.611247,35.780437],[-78.611112,35.780202],[-78.611081,35.780045],[-78.611089,35.779799],[-78.610428,35.779769],[-78.610359,35.780535],[-78.609797,35.780001],[-78.609046,35.780557],[-78.608405,35.780031],[-78.607714,35.780431],[-78.607554,35.780178],[-78.606838,35.780441],[-78.606715,35.780102],[-78.606644,35.779695],[-78.606121,35.779721],[-78.606207,35.780661],[-78.60589,35.780762],[-78.605776,35.780548],[-78.60485,35.780729],[-78.604794,35.780564],[-78.603765,35.780739],[-78.603713,35.780628],[-78.602858,35.780734],[-78.602673,35.780822],[-78.601637,35.781129],[-78.6016,35.781003],[-78.600069,35.781068],[-78.600037,35.780653],[-78.599226,35.780693],[-78.599303,35.781769],[-78.599581,35.781739],[-78.600706,35.781719],[-78.600676,35.78184],[-78.600813,35.782537],[-78.601228,35.783396],[-78.600939,35.784251],[-78.600038,35.784467],[-78.599245,35.784122],[-78.598828,35.7839],[-78.598709,35.78354],[-78.598814,35.783292],[-78.599048,35.78312],[-78.599362,35.783063],[-78.59942,35.782732],[-78.598679,35.78283],[-78.5984,35.782984],[-78.598463,35.783035],[-78.598644,35.783054],[-78.598697,35.783122],[-78.598693,35.783195],[-78.598638,35.783254],[-78.59855,35.783276],[-78.598186,35.783604],[-78.598012,35.783286],[-78.597777,35.783034],[-78.597415,35.782789],[-78.597239,35.782592],[-78.59721,35.782359],[-78.597223,35.782107],[-78.597294,35.781869],[-78.597501,35.781643],[-78.597911,35.782061],[-78.598388,35.781773],[-78.598098,35.78112],[-78.598897,35.780934],[-78.598675,35.780132],[-78.598001,35.780241],[-78.597108,35.78045],[-78.596127,35.780773],[-78.595348,35.781101],[-78.594641,35.78147],[-78.593968,35.781896],[-78.5935,35.782237],[-78.592804,35.782834],[-78.593263,35.783176],[-78.593107,35.783642],[-78.592613,35.783613],[-78.59239,35.786769],[-78.592856,35.786735],[-78.594009,35.786874],[-78.594304,35.786384],[-78.594518,35.786468],[-78.595449,35.786625],[-78.597403,35.786639],[-78.597383,35.786424],[-78.597705,35.786495],[-78.59775,35.786351],[-78.598025,35.786314],[-78.598053,35.786116],[-78.598639,35.786202],[-78.598816,35.785629],[-78.599368,35.785643]],[[-78.602853,35.781064],[-78.603166,35.781835],[-78.602358,35.782078],[-78.601811,35.781368],[-78.602853,35.781064]]]]},"properties":{"OLAY_NAME":"King Charles (South)","OVERLAY":"NCOD","EFF_DATE":"Nov 1, 2005","ObjectID":3},"id":3},{"type":"Feature","geometry":{"type":"Polygon","coordinates":[[[-78.631194,35.79576],[-78.631159,35.79582],[-78.630614,35.795617],[-78.629667,35.797181],[-78.629361,35.797527],[-78.628566,35.798011],[-78.627513,35.798453],[-78.626536,35.798981],[-78.627315,35.799907],[-78.627524,35.800059],[-78.627761,35.800156],[-78.628006,35.800197],[-78.628276,35.800184],[-78.628571,35.8001],[-78.629711,35.799566],[-78.630056,35.79998],[-78.635134,35.797955],[-78.635441,35.797787],[-78.635097,35.797845],[-78.634818,35.797787],[-78.63489,35.796568],[-78.635486,35.796591],[-78.635671,35.793613],[-78.633549,35.793535],[-78.632176,35.792988],[-78.630838,35.795241],[-78.631378,35.795453],[-78.631194,35.79576]]]},"properties":{"OLAY_NAME":"Mordecai 1","OVERLAY":"NCOD","EFF_DATE":"Feb 7, 1995","ObjectID":4},"id":4},{"type":"Feature","geometry":{"type":"Polygon","coordinates":[[[-78.631397,35.781348],[-78.631398,35.781324],[-78.630855,35.781313],[-78.63087,35.781196],[-78.632213,35.781221],[-78.632224,35.780983],[-78.628968,35.780873],[-78.628938,35.781495],[-78.630848,35.781548],[-78.630847,35.781633],[-78.631385,35.781647],[-78.631397,35.781348]]]},"properties":{"OLAY_NAME":"New Bern - Edenton","OVERLAY":"NCOD","EFF_DATE":"Jun 17, 1997","ObjectID":5},"id":5},{"type":"Feature","geometry":{"type":"Polygon","coordinates":[[[-78.621875,35.879188],[-78.621724,35.879123],[-78.621881,35.878851],[-78.621908,35.878743],[-78.621892,35.878561],[-78.621822,35.878414],[-78.621575,35.87821],[-78.621164,35.878067],[-78.618973,35.882245],[-78.619673,35.882227],[-78.620038,35.88251],[-78.620108,35.88265],[-78.620404,35.882868],[-78.62053,35.88316],[-78.621317,35.883763],[-78.621705,35.883956],[-78.622152,35.884007],[-78.622342,35.88351],[-78.622878,35.883638],[-78.623063,35.883069],[-78.622543,35.882964],[-78.621049,35.88183],[-78.621533,35.881093],[-78.621708,35.88021],[-78.622333,35.879383],[-78.621875,35.879188]]]},"properties":{"OLAY_NAME":"North Ridge West","OVERLAY":"NCOD","EFF_DATE":"Jan 22, 2019","ObjectID":6},"id":6},{"type":"Feature","geometry":{"type":"Polygon","coordinates":[[[-78.732138,35.77747],[-78.732403,35.776979],[-78.73244,35.776803],[-78.732458,35.776392],[-78.732564,35.775962],[-78.732663,35.77577],[-78.732994,35.77537],[-78.733447,35.775006],[-78.733745,35.774819],[-78.735052,35.774273],[-78.736057,35.773569],[-78.735349,35.772885],[-78.735484,35.772774],[-78.735168,35.770121],[-78.734949,35.769552],[-78.734252,35.769331],[-78.732252,35.769478],[-78.732241,35.76938],[-78.729731,35.769613],[-78.730274,35.769953],[-78.729885,35.770527],[-78.729989,35.771429],[-78.729687,35.771457],[-78.729828,35.77172],[-78.728856,35.771557],[-78.728708,35.771814],[-78.72876,35.772384],[-78.729252,35.77332],[-78.728087,35.773804],[-78.728099,35.774349],[-78.727994,35.77435],[-78.728001,35.774937],[-78.728108,35.774941],[-78.729763,35.778539],[-78.730082,35.778446],[-78.73068,35.779099],[-78.732138,35.77747]]]},"properties":{"OLAY_NAME":"Roylene Acres","OVERLAY":"NCOD","EFF_DATE":"Aug 4, 1992","ObjectID":7},"id":7},{"type":"Feature","geometry":{"type":"Polygon","coordinates":[[[-78.637059,35.87906],[-78.635158,35.876335],[-78.630054,35.878443],[-78.62991,35.87962],[-78.633818,35.879952],[-78.634386,35.879966],[-78.634719,35.879927],[-78.635247,35.879751],[-78.637059,35.87906]]]},"properties":{"OLAY_NAME":"Willow Run South","OVERLAY":"NCOD","EFF_DATE":"Mar 3, 2020","ObjectID":8},"id":8},{"type":"Feature","geometry":{"type":"Polygon","coordinates":[[[-78.626872,35.789386],[-78.626846,35.789301],[-78.626784,35.789258],[-78.626802,35.789202],[-78.626502,35.788999],[-78.6265,35.788899],[-78.626575,35.788823],[-78.626519,35.788759],[-78.626544,35.788729],[-78.626641,35.78872],[-78.626664,35.788633],[-78.626599,35.788699],[-78.626581,35.78859],[-78.626804,35.788494],[-78.626926,35.788394],[-78.626936,35.788304],[-78.627098,35.788246],[-78.626984,35.788107],[-78.626723,35.788075],[-78.626398,35.788379],[-78.626236,35.788657],[-78.626142,35.789721],[-78.62514,35.791997],[-78.625006,35.792422],[-78.624881,35.79302],[-78.624377,35.793],[-78.624427,35.791974],[-78.622403,35.791908],[-78.623249,35.78822],[-78.623369,35.788164],[-78.623452,35.787846],[-78.621005,35.787566],[-78.620337,35.792948],[-78.620154,35.793827],[-78.620194,35.793889],[-78.620159,35.79424],[-78.622384,35.794847],[-78.623851,35.795109],[-78.623739,35.795671],[-78.624334,35.795737],[-78.624246,35.796157],[-78.624758,35.796172],[-78.624782,35.795967],[-78.624901,35.795757],[-78.624935,35.795621],[-78.625148,35.795438],[-78.625143,35.795325],[-78.6252,35.795108],[-78.625332,35.794924],[-78.625365,35.794706],[-78.625496,35.794491],[-78.625565,35.794219],[-78.625574,35.793997],[-78.625913,35.793446],[-78.626011,35.793228],[-78.625979,35.79275],[-78.626043,35.792668],[-78.625913,35.792509],[-78.625936,35.792385],[-78.625916,35.792266],[-78.625981,35.792128],[-78.62597,35.792017],[-78.626075,35.791742],[-78.626,35.791589],[-78.625933,35.790879],[-78.626035,35.790666],[-78.626163,35.790535],[-78.626358,35.790202],[-78.626784,35.789769],[-78.626872,35.789386]]]},"properties":{"OLAY_NAME":"Oakwood Park","OVERLAY":"NCOD","EFF_DATE":"Oct 3, 2000","ObjectID":9},"id":9},{"type":"Feature","geometry":{"type":"Polygon","coordinates":[[[-78.635731,35.765842],[-78.635593,35.765837],[-78.635725,35.763433],[-78.631492,35.763367],[-78.631494,35.764492],[-78.631556,35.765505],[-78.631591,35.767163],[-78.631519,35.767513],[-78.631317,35.767916],[-78.631247,35.768178],[-78.631835,35.76825],[-78.632422,35.768446],[-78.631847,35.768997],[-78.631947,35.769098],[-78.631919,35.769688],[-78.631844,35.769747],[-78.631795,35.770481],[-78.63186,35.770622],[-78.631779,35.77222],[-78.631964,35.772456],[-78.631963,35.772734],[-78.632644,35.772715],[-78.632684,35.771947],[-78.635268,35.772035],[-78.635402,35.769395],[-78.63502,35.769361],[-78.635052,35.768874],[-78.635431,35.768886],[-78.635402,35.769395],[-78.635989,35.769434],[-78.637039,35.769436],[-78.637089,35.768354],[-78.6389,35.768418],[-78.639145,35.765994],[-78.638352,35.765744],[-78.638065,35.76572],[-78.637229,35.765701],[-78.637211,35.765893],[-78.635731,35.765842]],[[-78.633292,35.768968],[-78.633766,35.769171],[-78.633684,35.769458],[-78.633722,35.769961],[-78.632812,35.769937],[-78.632871,35.768716],[-78.633292,35.768968]]]},"properties":{"OLAY_NAME":"South Park","OVERLAY":"NCOD","EFF_DATE":"Oct 16, 2007","ObjectID":10},"id":10},{"type":"Feature","geometry":{"type":"MultiPolygon","coordinates":[[[[-78.633625,35.790714],[-78.633915,35.790902],[-78.633422,35.791302],[-78.633017,35.791031],[-78.633444,35.790597],[-78.633255,35.790586],[-78.633268,35.790211],[-78.632654,35.790183],[-78.632651,35.790259],[-78.632075,35.790251],[-78.632069,35.790393],[-78.631232,35.790364],[-78.631241,35.789952],[-78.631288,35.789816],[-78.631296,35.789482],[-78.630085,35.789445],[-78.630086,35.789337],[-78.628423,35.789274],[-78.626784,35.789258],[-78.626846,35.789301],[-78.626872,35.789386],[-78.626784,35.789769],[-78.626358,35.790202],[-78.626435,35.790204],[-78.626419,35.790616],[-78.630087,35.790736],[-78.63001,35.792661],[-78.628847,35.79262],[-78.628783,35.793664],[-78.628745,35.793849],[-78.62812,35.794981],[-78.627995,35.797627],[-78.62803,35.797761],[-78.628286,35.798135],[-78.628782,35.797894],[-78.629295,35.797575],[-78.629465,35.797433],[-78.629667,35.797181],[-78.630395,35.795974],[-78.628662,35.795927],[-78.628696,35.795081],[-78.628877,35.794776],[-78.63108,35.794835],[-78.632176,35.792988],[-78.633549,35.793535],[-78.635671,35.793613],[-78.635844,35.790846],[-78.635694,35.791044],[-78.635436,35.791236],[-78.635035,35.791222],[-78.635074,35.790641],[-78.634256,35.790585],[-78.634264,35.790424],[-78.633672,35.790408],[-78.63366,35.790598],[-78.633444,35.790597],[-78.633625,35.790714]],[[-78.634218,35.791374],[-78.634151,35.792509],[-78.63335,35.792377],[-78.632699,35.792133],[-78.633011,35.79169],[-78.633269,35.791433],[-78.633697,35.791784],[-78.634218,35.791374]]],[[[-78.629709,35.799566],[-78.628518,35.800123],[-78.628206,35.800192],[-78.628525,35.800604],[-78.630056,35.79998],[-78.629709,35.799566]]]]},"properties":{"OLAY_NAME":"Mordecai 2","OVERLAY":"NCOD","EFF_DATE":"Feb 7, 1995","ObjectID":11},"id":11},{"type":"Feature","geometry":{"type":"Polygon","coordinates":[[[-78.701464,35.84317],[-78.701474,35.842993],[-78.701697,35.842927],[-78.70166,35.842669],[-78.701844,35.842411],[-78.701837,35.842171],[-78.701718,35.842093],[-78.701718,35.842024],[-78.701645,35.84192],[-78.701388,35.84188],[-78.70097,35.841949],[-78.700342,35.841756],[-78.700177,35.841747],[-78.700016,35.841798],[-78.699876,35.84188],[-78.699151,35.842537],[-78.699046,35.842664],[-78.698911,35.842955],[-78.698559,35.843384],[-78.698112,35.844028],[-78.697623,35.844522],[-78.697366,35.844849],[-78.69711,35.845025],[-78.697037,35.845116],[-78.696897,35.846715],[-78.69775,35.846777],[-78.69759,35.847728],[-78.697171,35.849605],[-78.698356,35.849662],[-78.698358,35.852573],[-78.697377,35.852574],[-78.698689,35.853477],[-78.699626,35.852568],[-78.700144,35.852562],[-78.700911,35.851892],[-78.701464,35.84317]]]},"properties":{"OLAY_NAME":"Glen Forest","OVERLAY":"NCOD","EFF_DATE":"Mar 7, 1995","ObjectID":12},"id":12},{"type":"Feature","geometry":{"type":"Polygon","coordinates":[[[-78.662493,35.795091],[-78.662054,35.795101],[-78.662003,35.795512],[-78.661059,35.795502],[-78.66068,35.796106],[-78.659649,35.795651],[-78.659163,35.796413],[-78.660511,35.796415],[-78.660307,35.796996],[-78.660103,35.797761],[-78.660088,35.798148],[-78.662302,35.798118],[-78.662369,35.798038],[-78.66519,35.79808],[-78.665165,35.797502],[-78.66521,35.795333],[-78.667849,35.794523],[-78.66785,35.794466],[-78.668098,35.794457],[-78.66887,35.794217],[-78.668874,35.793772],[-78.668244,35.793766],[-78.66824,35.793437],[-78.667688,35.793405],[-78.667802,35.792816],[-78.667321,35.792722],[-78.66732,35.792519],[-78.668083,35.792405],[-78.667917,35.792293],[-78.667811,35.792172],[-78.667718,35.791976],[-78.667698,35.791834],[-78.666463,35.791763],[-78.666486,35.790937],[-78.665591,35.790931],[-78.665602,35.79002],[-78.666501,35.790021],[-78.666542,35.789777],[-78.666652,35.789524],[-78.664637,35.789505],[-78.664632,35.789997],[-78.66471,35.789996],[-78.664713,35.790123],[-78.664872,35.790122],[-78.664871,35.790436],[-78.664458,35.790435],[-78.664454,35.790866],[-78.664257,35.790867],[-78.664253,35.791736],[-78.663469,35.791731],[-78.66348,35.792939],[-78.663947,35.792941],[-78.663938,35.793274],[-78.663484,35.79327],[-78.663487,35.793421],[-78.663343,35.79342],[-78.663344,35.79373],[-78.662476,35.793721],[-78.662503,35.794068],[-78.662461,35.794068],[-78.662493,35.795091]]]},"properties":{"OLAY_NAME":"Oberlin Village","OVERLAY":"NCOD","EFF_DATE":"Nov 8, 1995","ObjectID":13},"id":13},{"type":"Feature","geometry":{"type":"Polygon","coordinates":[[[-78.607634,35.872353],[-78.607424,35.872935],[-78.607601,35.87298],[-78.607712,35.873052],[-78.60812,35.872704],[-78.608515,35.873007],[-78.608805,35.87352],[-78.609006,35.873364],[-78.609574,35.873728],[-78.611649,35.874004],[-78.61303,35.873397],[-78.613592,35.873632],[-78.613507,35.873968],[-78.613842,35.874956],[-78.613992,35.875832],[-78.614887,35.876271],[-78.615245,35.875594],[-78.61559,35.87508],[-78.616163,35.874469],[-78.616945,35.873879],[-78.617328,35.873627],[-78.618781,35.872877],[-78.619408,35.872169],[-78.618297,35.871412],[-78.617936,35.870992],[-78.617745,35.87053],[-78.61694,35.870688],[-78.616907,35.870656],[-78.615993,35.871429],[-78.607868,35.87123],[-78.607833,35.872361],[-78.607634,35.872353]]]},"properties":{"OLAY_NAME":"North Ridge South","OVERLAY":"NCOD","EFF_DATE":"Dec 6, 2016","ObjectID":14},"id":14},{"type":"Feature","geometry":{"type":"Polygon","coordinates":[[[-78.555499,35.830215],[-78.555467,35.826801],[-78.554118,35.826837],[-78.554039,35.826894],[-78.553507,35.826939],[-78.553306,35.826814],[-78.552557,35.827061],[-78.552498,35.827293],[-78.552207,35.827636],[-78.552105,35.827692],[-78.551809,35.827734],[-78.551679,35.827905],[-78.551563,35.827846],[-78.551407,35.827868],[-78.55125,35.827957],[-78.551052,35.827961],[-78.550947,35.828066],[-78.550516,35.82814],[-78.550376,35.828109],[-78.550369,35.828052],[-78.550087,35.828021],[-78.549891,35.82791],[-78.549705,35.828001],[-78.549545,35.827936],[-78.549669,35.827842],[-78.549497,35.827581],[-78.549441,35.827553],[-78.549243,35.827657],[-78.54837,35.826545],[-78.546871,35.825193],[-78.546727,35.823376],[-78.551708,35.823088],[-78.551825,35.820575],[-78.550612,35.820682],[-78.550679,35.820213],[-78.550791,35.819875],[-78.5508,35.819665],[-78.550746,35.819481],[-78.550642,35.819346],[-78.548987,35.819285],[-78.548843,35.817799],[-78.548855,35.817661],[-78.548214,35.817643],[-78.547466,35.815789],[-78.54743,35.815502],[-78.544172,35.815778],[-78.541841,35.81614],[-78.540743,35.816365],[-78.538956,35.817086],[-78.539112,35.817265],[-78.539255,35.817519],[-78.539314,35.817705],[-78.539305,35.817996],[-78.539258,35.818227],[-78.539189,35.818394],[-78.539076,35.818557],[-78.538567,35.81911],[-78.538412,35.819356],[-78.538303,35.81962],[-78.538255,35.819898],[-78.538253,35.82016],[-78.538283,35.820431],[-78.538398,35.820813],[-78.538692,35.821251],[-78.539394,35.822086],[-78.539514,35.822301],[-78.539621,35.822739],[-78.539672,35.82307],[-78.53968,35.823532],[-78.539648,35.8238],[-78.539541,35.823783],[-78.539477,35.824683],[-78.539574,35.824767],[-78.539559,35.82542],[-78.539621,35.825599],[-78.539561,35.826015],[-78.539598,35.826136],[-78.539765,35.826413],[-78.539788,35.826731],[-78.539761,35.827102],[-78.539467,35.827983],[-78.53926,35.828338],[-78.539033,35.828625],[-78.538674,35.828945],[-78.543705,35.833137],[-78.543616,35.835634],[-78.544385,35.835771],[-78.544517,35.835559],[-78.54489,35.835138],[-78.545426,35.834813],[-78.545972,35.834647],[-78.547438,35.834449],[-78.549302,35.834252],[-78.55041,35.834184],[-78.555529,35.83404],[-78.555499,35.830215]]]},"properties":{"OLAY_NAME":"Foxcroft","OVERLAY":"NCOD","EFF_DATE":"Oct 1, 2002","ObjectID":15},"id":15},{"type":"Feature","geometry":{"type":"Polygon","coordinates":[[[-78.695566,35.859095],[-78.695562,35.859252],[-78.695494,35.859399],[-78.695477,35.859584],[-78.697924,35.859649],[-78.697555,35.855906],[-78.696537,35.855197],[-78.696518,35.855215],[-78.696408,35.855134],[-78.696424,35.855118],[-78.694384,35.853697],[-78.69647,35.85305],[-78.696472,35.851949],[-78.696217,35.851762],[-78.693743,35.851713],[-78.690372,35.851585],[-78.69039,35.851095],[-78.690276,35.850977],[-78.690002,35.850809],[-78.689587,35.850633],[-78.688973,35.85028],[-78.688709,35.850184],[-78.688581,35.850089],[-78.688567,35.850006],[-78.688289,35.849742],[-78.688327,35.84961],[-78.688563,35.849485],[-78.688669,35.849394],[-78.688729,35.849166],[-78.688857,35.848908],[-78.689329,35.848324],[-78.68942,35.847789],[-78.689449,35.847387],[-78.689337,35.846871],[-78.689236,35.846763],[-78.688799,35.846549],[-78.68856,35.846374],[-78.688127,35.846158],[-78.687995,35.846],[-78.688172,35.84562],[-78.687165,35.845101],[-78.686525,35.844819],[-78.686046,35.844653],[-78.681738,35.843476],[-78.681107,35.847088],[-78.68208,35.847091],[-78.681889,35.851294],[-78.682812,35.851318],[-78.682815,35.851241],[-78.685684,35.851362],[-78.685684,35.851395],[-78.685951,35.851403],[-78.685934,35.852156],[-78.688159,35.852176],[-78.688234,35.854875],[-78.686839,35.854897],[-78.686796,35.856467],[-78.68705,35.858552],[-78.687055,35.859249],[-78.686843,35.860395],[-78.686506,35.861407],[-78.687575,35.861333],[-78.687472,35.862981],[-78.687414,35.863428],[-78.687246,35.86633],[-78.69035,35.867539],[-78.690703,35.866954],[-78.691313,35.867343],[-78.691837,35.866989],[-78.692365,35.86696],[-78.692488,35.86692],[-78.692596,35.865417],[-78.69275,35.861663],[-78.693617,35.861791],[-78.694133,35.861914],[-78.694148,35.85909],[-78.695566,35.859095]]]},"properties":{"OLAY_NAME":"Brookhaven (South)","OVERLAY":"NCOD","EFF_DATE":"Sep 7, 1993","ObjectID":16},"id":16},{"type":"Feature","geometry":{"type":"Polygon","coordinates":[[[-78.651484,35.788659],[-78.655076,35.788594],[-78.655644,35.789006],[-78.656106,35.789073],[-78.656088,35.78859],[-78.662333,35.788442],[-78.661905,35.787962],[-78.661429,35.787325],[-78.661362,35.787096],[-78.661327,35.786385],[-78.66105,35.786803],[-78.660541,35.786578],[-78.660848,35.786117],[-78.656183,35.784059],[-78.656283,35.783938],[-78.656004,35.783811],[-78.656032,35.783771],[-78.655432,35.783475],[-78.655375,35.783582],[-78.654734,35.783207],[-78.654686,35.78415],[-78.653598,35.7841],[-78.653577,35.784242],[-78.653488,35.784386],[-78.653304,35.78451],[-78.652481,35.784918],[-78.651166,35.785857],[-78.651013,35.785896],[-78.650763,35.785903],[-78.650854,35.787099],[-78.65124,35.787175],[-78.651244,35.787494],[-78.651659,35.787591],[-78.651679,35.788169],[-78.651475,35.788173],[-78.651484,35.788659]]]},"properties":{"OLAY_NAME":"Forest Park (Core)","OVERLAY":"NCOD","EFF_DATE":"Apr 4, 2006","ObjectID":17},"id":17},{"type":"Feature","geometry":{"type":"Polygon","coordinates":[[[-78.704023,35.839442],[-78.704156,35.837574],[-78.704092,35.837457],[-78.704174,35.835614],[-78.698472,35.835599],[-78.698106,35.834871],[-78.697166,35.835291],[-78.696341,35.834492],[-78.694456,35.835425],[-78.694757,35.835967],[-78.694755,35.83639],[-78.694684,35.836664],[-78.694764,35.836678],[-78.694588,35.842325],[-78.693541,35.842335],[-78.692524,35.842261],[-78.692439,35.844881],[-78.693682,35.845351],[-78.694548,35.845593],[-78.695828,35.84566],[-78.696323,35.845594],[-78.696965,35.845171],[-78.697125,35.845013],[-78.697366,35.844849],[-78.697623,35.844522],[-78.698112,35.844028],[-78.698559,35.843384],[-78.698931,35.842926],[-78.699087,35.842607],[-78.699942,35.841833],[-78.700111,35.841762],[-78.700239,35.841746],[-78.70097,35.841949],[-78.701388,35.84188],[-78.701658,35.841919],[-78.701997,35.841814],[-78.70279,35.841731],[-78.703984,35.841411],[-78.704023,35.839442]]]},"properties":{"OLAY_NAME":"Laurel Hills","OVERLAY":"NCOD","EFF_DATE":"Apr 7, 1998","ObjectID":18},"id":18},{"type":"Feature","geometry":{"type":"MultiPolygon","coordinates":[[[[-78.626036,35.790666],[-78.625933,35.790879],[-78.625996,35.791481],[-78.630045,35.791617],[-78.630087,35.790736],[-78.626096,35.790604],[-78.626036,35.790666]]],[[[-78.63001,35.792661],[-78.630023,35.792346],[-78.628868,35.79229],[-78.628847,35.79262],[-78.63001,35.792661]]],[[[-78.626533,35.798983],[-78.626043,35.799259],[-78.626489,35.799778],[-78.626287,35.799894],[-78.626443,35.800102],[-78.627156,35.799727],[-78.626533,35.798983]]]]},"properties":{"OLAY_NAME":"Mordecai 2","OVERLAY":"NCOD","EFF_DATE":"Jan 17, 2006","ObjectID":19},"id":19},{"type":"Feature","geometry":{"type":"Polygon","coordinates":[[[-78.644161,35.805453],[-78.644151,35.805432],[-78.643613,35.805608],[-78.643283,35.804912],[-78.644384,35.804561],[-78.644137,35.804048],[-78.644792,35.803389],[-78.644269,35.803059],[-78.644465,35.8028],[-78.644516,35.802676],[-78.644591,35.801743],[-78.645227,35.801772],[-78.645297,35.800783],[-78.644675,35.800924],[-78.644684,35.800834],[-78.644306,35.799377],[-78.642982,35.799595],[-78.642903,35.799383],[-78.643458,35.798611],[-78.643482,35.798633],[-78.643614,35.79849],[-78.643568,35.798454],[-78.643709,35.798256],[-78.642496,35.797498],[-78.64247,35.797398],[-78.64223,35.797247],[-78.641962,35.797669],[-78.641271,35.798466],[-78.640021,35.800178],[-78.64028,35.800552],[-78.64003,35.800665],[-78.639739,35.800745],[-78.638523,35.800871],[-78.638141,35.800985],[-78.63788,35.800481],[-78.637372,35.800852],[-78.637196,35.801006],[-78.637068,35.801181],[-78.636902,35.801533],[-78.636868,35.801743],[-78.636875,35.801961],[-78.636587,35.801985],[-78.636655,35.802076],[-78.636685,35.802189],[-78.636777,35.802282],[-78.635853,35.802771],[-78.635191,35.801944],[-78.634874,35.807289],[-78.635866,35.807618],[-78.636197,35.807646],[-78.636674,35.807542],[-78.637493,35.807185],[-78.637692,35.807442],[-78.637861,35.807747],[-78.638032,35.808171],[-78.640376,35.807199],[-78.640689,35.807708],[-78.641498,35.807377],[-78.641754,35.807777],[-78.642151,35.807618],[-78.642582,35.807693],[-78.642853,35.807512],[-78.643682,35.807158],[-78.643848,35.80736],[-78.643644,35.807666],[-78.644101,35.807707],[-78.64452,35.808241],[-78.645224,35.808046],[-78.645112,35.807769],[-78.646374,35.807376],[-78.646704,35.80742],[-78.646827,35.807089],[-78.646976,35.807175],[-78.647243,35.807242],[-78.647185,35.807481],[-78.64762,35.807559],[-78.64758,35.808027],[-78.647845,35.808073],[-78.648251,35.808039],[-78.646124,35.804587],[-78.64515,35.805867],[-78.644801,35.805696],[-78.644663,35.805885],[-78.644682,35.805924],[-78.644431,35.806007],[-78.644161,35.805453]]]},"properties":{"OLAY_NAME":"Five Points East (Core)","OVERLAY":"NCOD","EFF_DATE":"Oct 5, 2004","ObjectID":20},"id":20},{"type":"Feature","geometry":{"type":"Polygon","coordinates":[[[-78.683812,35.866124],[-78.683415,35.865983],[-78.683414,35.866016],[-78.682008,35.866093],[-78.681822,35.868175],[-78.681707,35.868947],[-78.681607,35.869146],[-78.682597,35.868762],[-78.683204,35.868768],[-78.683066,35.871255],[-78.683826,35.871285],[-78.684151,35.871576],[-78.684623,35.871816],[-78.685758,35.872235],[-78.685595,35.872848],[-78.687463,35.872886],[-78.687926,35.872033],[-78.687967,35.871563],[-78.692422,35.871798],[-78.692744,35.871346],[-78.693192,35.870622],[-78.693417,35.87035],[-78.693543,35.867297],[-78.691533,35.867195],[-78.691313,35.867343],[-78.690703,35.866954],[-78.69035,35.867539],[-78.687246,35.86633],[-78.686875,35.866389],[-78.685973,35.866428],[-78.685916,35.866875],[-78.683812,35.866124]]]},"properties":{"OLAY_NAME":"Brookhaven (North)","OVERLAY":"NCOD","EFF_DATE":"Sep 7, 1993","ObjectID":21},"id":21},{"type":"Feature","geometry":{"type":"MultiPolygon","coordinates":[[[[-78.650696,35.784483],[-78.650701,35.785034],[-78.650763,35.785903],[-78.651013,35.785896],[-78.651166,35.785857],[-78.652481,35.784918],[-78.653304,35.78451],[-78.653488,35.784386],[-78.653577,35.784242],[-78.653598,35.7841],[-78.654686,35.78415],[-78.654734,35.783207],[-78.655375,35.783582],[-78.655698,35.782992],[-78.655197,35.78262],[-78.654261,35.782054],[-78.652127,35.781113],[-78.651477,35.780978],[-78.65056,35.78091],[-78.650527,35.781024],[-78.650687,35.782932],[-78.650696,35.784483]]],[[[-78.650892,35.787472],[-78.651019,35.788667],[-78.651484,35.788659],[-78.651475,35.788173],[-78.651679,35.788169],[-78.651659,35.787591],[-78.651244,35.787494],[-78.65124,35.787175],[-78.650854,35.787099],[-78.650892,35.787472]]]]},"properties":{"OLAY_NAME":"Forest Park (Transition)","OVERLAY":"NCOD","EFF_DATE":"Apr 4, 2006","ObjectID":22},"id":22},{"type":"Feature","geometry":{"type":"Polygon","coordinates":[[[-78.657761,35.80283],[-78.657727,35.802947],[-78.658131,35.803022],[-78.658056,35.803164],[-78.659199,35.80321],[-78.659213,35.802826],[-78.659155,35.802824],[-78.659188,35.802286],[-78.658567,35.802268],[-78.658735,35.801977],[-78.659152,35.801466],[-78.659751,35.801837],[-78.659792,35.801914],[-78.659798,35.802143],[-78.660656,35.802145],[-78.66067,35.801799],[-78.659808,35.801796],[-78.659842,35.800822],[-78.660709,35.80082],[-78.660721,35.800525],[-78.66021,35.799852],[-78.659977,35.800342],[-78.659613,35.800867],[-78.658562,35.800844],[-78.658455,35.801154],[-78.657625,35.801166],[-78.657619,35.801465],[-78.658156,35.801463],[-78.658047,35.801668],[-78.658164,35.801672],[-78.658137,35.802381],[-78.657889,35.802381],[-78.657761,35.80283]]]},"properties":{"OLAY_NAME":"Oberlin Village","OVERLAY":"NCOD","EFF_DATE":"Nov 8, 1995","ObjectID":23},"id":23},{"type":"Feature","geometry":{"type":"Polygon","coordinates":[[[-78.656297,35.836541],[-78.646059,35.835489],[-78.645925,35.836171],[-78.645687,35.836636],[-78.646167,35.83683],[-78.646281,35.836998],[-78.646239,35.83716],[-78.645909,35.837689],[-78.645542,35.838102],[-78.644882,35.837757],[-78.644643,35.838068],[-78.645039,35.838338],[-78.64516,35.838464],[-78.64621,35.840084],[-78.645148,35.840542],[-78.645661,35.84136],[-78.645129,35.841598],[-78.645266,35.841812],[-78.645695,35.842252],[-78.644714,35.843542],[-78.644706,35.844064],[-78.646195,35.844102],[-78.649624,35.844525],[-78.650431,35.844546],[-78.651569,35.844477],[-78.652896,35.844453],[-78.65389,35.844356],[-78.654489,35.844147],[-78.655319,35.843706],[-78.654946,35.843272],[-78.655305,35.842931],[-78.655475,35.843],[-78.65593,35.842821],[-78.656179,35.842873],[-78.656571,35.842504],[-78.65606,35.842211],[-78.656414,35.841853],[-78.657066,35.842334],[-78.657257,35.842108],[-78.656619,35.841646],[-78.657091,35.841209],[-78.657264,35.840648],[-78.656864,35.840377],[-78.656471,35.840789],[-78.656135,35.840561],[-78.656579,35.840184],[-78.655735,35.83961],[-78.656418,35.838777],[-78.656636,35.838451],[-78.656757,35.837591],[-78.656126,35.837519],[-78.656297,35.836541]]]},"properties":{"OLAY_NAME":"North Hills","OVERLAY":"NCOD","EFF_DATE":"Feb 6, 2018","ObjectID":24},"id":24},{"type":"Feature","geometry":{"type":"Polygon","coordinates":[[[-78.648154,35.782344],[-78.648125,35.78286],[-78.64792,35.782852],[-78.647842,35.784187],[-78.648562,35.784216],[-78.64854,35.784594],[-78.649001,35.784611],[-78.649024,35.784232],[-78.649668,35.784257],[-78.649639,35.784635],[-78.649,35.784615],[-78.648944,35.785663],[-78.650323,35.785719],[-78.650325,35.785774],[-78.650299,35.785773],[-78.650334,35.78637],[-78.650788,35.786386],[-78.650692,35.784826],[-78.650687,35.782932],[-78.650629,35.782348],[-78.649689,35.782337],[-78.649729,35.781704],[-78.649169,35.781685],[-78.649155,35.781988],[-78.647966,35.781943],[-78.647952,35.782174],[-78.648162,35.782179],[-78.648154,35.782344]],[[-78.649552,35.783009],[-78.649512,35.783878],[-78.649042,35.783859],[-78.649057,35.783565],[-78.648245,35.783544],[-78.648267,35.782866],[-78.648623,35.782881],[-78.648609,35.783266],[-78.648791,35.78327],[-78.648805,35.782888],[-78.649089,35.7829],[-78.649128,35.782369],[-78.649686,35.782388],[-78.649662,35.782922],[-78.649557,35.782918],[-78.649552,35.783009]]]},"properties":{"OLAY_NAME":"North Boylan","OVERLAY":"NCOD","EFF_DATE":"Sep 1, 1998","ObjectID":25},"id":25},{"type":"Feature","geometry":{"type":"Polygon","coordinates":[[[-78.62507,35.784213],[-78.624602,35.784199],[-78.624585,35.784558],[-78.628881,35.784632],[-78.628939,35.782203],[-78.629319,35.782218],[-78.629374,35.781508],[-78.628938,35.781495],[-78.628968,35.780873],[-78.632224,35.780983],[-78.632206,35.781365],[-78.632688,35.78138],[-78.632693,35.781236],[-78.633141,35.781252],[-78.633137,35.78132],[-78.633599,35.78134],[-78.633613,35.781026],[-78.633465,35.781022],[-78.633502,35.780601],[-78.633526,35.780602],[-78.633536,35.780225],[-78.633194,35.780212],[-78.633236,35.779406],[-78.63166,35.779314],[-78.631649,35.779755],[-78.630945,35.779743],[-78.630917,35.780155],[-78.630049,35.78013],[-78.630083,35.779351],[-78.629734,35.779332],[-78.62972,35.779724],[-78.629366,35.779736],[-78.629347,35.780111],[-78.626325,35.78002],[-78.626351,35.779411],[-78.624473,35.77938],[-78.624452,35.779952],[-78.623233,35.779901],[-78.623195,35.780623],[-78.623436,35.780644],[-78.623385,35.781533],[-78.624021,35.781549],[-78.624046,35.781076],[-78.624701,35.781095],[-78.62471,35.780726],[-78.624935,35.780736],[-78.62492,35.781119],[-78.6247,35.781112],[-78.624642,35.78206],[-78.62518,35.782078],[-78.62507,35.784213]],[[-78.625707,35.780703],[-78.625703,35.780768],[-78.625433,35.780757],[-78.625457,35.780373],[-78.625724,35.780384],[-78.625707,35.780703]]]},"properties":{"OLAY_NAME":"New Bern - Edenton","OVERLAY":"NCOD","EFF_DATE":"Sep 15, 1992","ObjectID":26},"id":26}]}